{"type":"FeatureCollection", "features": [
{"type":"Feature","geometry":{"type":"Polygon","coordinates":[[[120.6659,16.0614],[120.665777,16.052424],[120.6809,16.0534],[120.6811,16.0621],[120.6659,16.0614]]]},"properties":{"barangay":"Cabacaraan","municipality":"San Manuel","province":"Pangasinan","gid":"PHL.61.36.1_1"}},
{"type":"Feature","geometry":{"type":"Polygon","coordinates":[[[120.6657,16.0468],[120.665777,16.052424],[120.6659,16.0614],[120.6607,16.0613],[120.6559,16.0528],[120.65,16.0493],[120.6499,16.0442],[120.6608,16.0464],[120.6657,16.0468]]]},"properties":{"barangay":"Cabaritan","municipality":"San Manuel","province":"Pangasinan","gid":"PHL.61.36.2_1"}},
{"type":"Feature","geometry":{"type":"Polygon","coordinates":[[[120.6811,16.0621],[120.6856,16.0624],[120.6891,16.0689],[120.7065,16.068],[120.701599,16.081384],[120.6759,16.08],[120.674217,16.07343],[120.6738,16.0718],[120.673977,16.069298],[120.6745,16.0619],[120.6811,16.0621]]]},"properties":{"barangay":"Flores","municipality":"San Manuel","province":"Pangasinan","gid":"PHL.61.36.3_1"}},
{"type":"Feature","geometry":{"type":"Polygon","coordinates":[[[120.674217,16.07343],[120.6743,16.075],[120.6601,16.0746],[120.660361,16.07288],[120.661421,16.068032],[120.673977,16.069298],[120.6738,16.0718],[120.674217,16.07343]]]},"properties":{"barangay":"Guiset Norte","municipality":"San Manuel","province":"Pangasinan","gid":"PHL.61.36.4_1"}},
{"type":"Feature","geometry":{"type":"Polygon","coordinates":[[[120.673977,16.069298],[120.661421,16.068032],[120.6618,16.0663],[120.6604,16.0665],[120.6607,16.0613],[120.6745,16.0619],[120.673977,16.069298]]]},"properties":{"barangay":"Guiset Sur","municipality":"San Manuel","province":"Pangasinan","gid":"PHL.61.36.5_1"}},
{"type":"Feature","geometry":{"type":"Polygon","coordinates":[[[120.6553,16.1877],[120.626,16.2018],[120.6112,16.2046],[120.6203,16.1966],[120.6223,16.1931],[120.6225,16.1876],[120.6179,16.1827],[120.6184,16.1776],[120.6246,16.172],[120.6347,16.1571],[120.6327,16.151],[120.6326,16.1344],[120.6293,16.1244],[120.6349,16.1224],[120.6347,16.1137],[120.6383,16.1025],[120.6366,16.0972],[120.6385,16.0906],[120.6363,16.0867],[120.6364,16.0809],[120.6332,16.0726],[120.653,16.073],[120.653149,16.080424],[120.65315,16.080485],[120.653294,16.087665],[120.6553,16.1877]]]},"properties":{"barangay":"Lapalo","municipality":"San Manuel","province":"Pangasinan","gid":"PHL.61.36.6_1"}},
{"type":"Feature","geometry":{"type":"Polygon","coordinates":[[[120.6607,16.0613],[120.6604,16.0665],[120.6618,16.0663],[120.661421,16.068032],[120.660361,16.07288],[120.6601,16.0746],[120.659958,16.074719],[120.653149,16.080424],[120.653,16.073],[120.6501,16.0653],[120.65,16.0493],[120.6559,16.0528],[120.6607,16.0613]]]},"properties":{"barangay":"Nagsaag","municipality":"San Manuel","province":"Pangasinan","gid":"PHL.61.36.7_1"}},
{"type":"Feature","geometry":{"type":"Polygon","coordinates":[[[120.7013,16.0822],[120.701341,16.082202],[120.7218,16.0833],[120.7223,16.0852],[120.7081,16.1019],[120.7001,16.1073],[120.6962,16.1143],[120.6955,16.1187],[120.6878,16.1249],[120.6821,16.1164],[120.6833,16.1033],[120.68,16.0929],[120.6967,16.0938],[120.6964,16.0893],[120.7013,16.0822]]]},"properties":{"barangay":"Narra","municipality":"San Manuel","province":"Pangasinan","gid":"PHL.61.36.8_1"}},
{"type":"Feature","geometry":{"type":"Polygon","coordinates":[[[120.6811,16.0621],[120.6812,16.0473],[120.6967,16.0482],[120.695,16.0683],[120.6891,16.0689],[120.6856,16.0624],[120.6811,16.0621]]]},"properties":{"barangay":"San Antonio-Arzadon","municipality":"San Manuel","province":"Pangasinan","gid":"PHL.61.36.9_1"}},
{"type":"Feature","geometry":{"type":"Polygon","coordinates":[[[120.701599,16.081384],[120.7013,16.0822],[120.6964,16.0893],[120.6967,16.0938],[120.68,16.0929],[120.6536,16.0912],[120.653294,16.087665],[120.65315,16.080485],[120.653149,16.080424],[120.659958,16.074719],[120.6601,16.0746],[120.6743,16.075],[120.6759,16.08],[120.701599,16.081384]]]},"properties":{"barangay":"San Bonifacio","municipality":"San Manuel","province":"Pangasinan","gid":"PHL.61.36.10_1"}},
{"type":"Feature","geometry":{"type":"Polygon","coordinates":[[[120.665777,16.052424],[120.6657,16.0468],[120.6812,16.0473],[120.6809,16.0534],[120.665777,16.052424]]]},"properties":{"barangay":"San Juan","municipality":"San Manuel","province":"Pangasinan","gid":"PHL.61.36.11_1"}},
{"type":"Feature","geometry":{"type":"Polygon","coordinates":[[[120.6878,16.1249],[120.6816,16.136],[120.6736,16.1383],[120.6775,16.1412],[120.6821,16.1483],[120.6872,16.1476],[120.6899,16.1514],[120.697,16.1552],[120.693,16.1594],[120.6826,16.1593],[120.6879,16.1706],[120.6827,16.1719],[120.6807,16.1745],[120.6886,16.1773],[120.6911,16.1843],[120.6954,16.1842],[120.7006,16.1898],[120.6973,16.1915],[120.6553,16.1877],[120.6536,16.0912],[120.68,16.0929],[120.6833,16.1033],[120.6821,16.1164],[120.6878,16.1249]]]},"properties":{"barangay":"San Roque","municipality":"San Manuel","province":"Pangasinan","gid":"PHL.61.36.12_1"}},
{"type":"Feature","geometry":{"type":"Polygon","coordinates":[[[120.7013,16.0822],[120.701599,16.081384],[120.7065,16.068],[120.695,16.0683],[120.6967,16.0482],[120.7085,16.0494],[120.7111,16.0576],[120.7202,16.0519],[120.7245,16.0569],[120.7204,16.0772],[120.7218,16.0833],[120.701341,16.082202],[120.7013,16.0822]]]},"properties":{"barangay":"San Vicente","municipality":"San Manuel","province":"Pangasinan","gid":"PHL.61.36.13_1"}},
{"type":"Feature","geometry":{"type":"Polygon","coordinates":[[[120.6332,16.0726],[120.6316,16.0422],[120.6465,16.0443],[120.6499,16.0442],[120.65,16.0493],[120.6501,16.0653],[120.653,16.073],[120.6332,16.0726]]]},"properties":{"barangay":"Santo Domingo","municipality":"San Manuel","province":"Pangasinan","gid":"PHL.61.36.14_1"}}
]}