{"type":"FeatureCollection", "features": [
{"type":"Feature","geometry":{"type":"Polygon","coordinates":[[[120.6812,16.0473],[120.6967,16.0482],[120.7085,16.0494],[120.7111,16.0576],[120.7202,16.0519],[120.7245,16.0569],[120.7218,16.0833],[120.7081,16.1019],[120.7001,16.1073],[120.6955,16.1187],[120.6878,16.1249],[120.6816,16.136],[120.6736,16.1383],[120.6821,16.1483],[120.697,16.1552],[120.6826,16.1593],[120.6886,16.1773],[120.6973,16.1915],[120.6553,16.1877],[120.626,16.2018],[120.6112,16.2046],[120.6203,16.1966],[120.6225,16.1876],[120.6184,16.1776],[120.6347,16.1571],[120.6293,16.1244],[120.6349,16.1224],[120.6385,16.0906],[120.6332,16.0726],[120.6316,16.0422],[120.6499,16.0442],[120.6657,16.0468],[120.6812,16.0473]],[[120.674217,16.07343],[120.6743,16.075],[120.6759,16.08],[120.674217,16.07343]],[[120.7065,16.068],[120.695,16.0683],[120.6891,16.0689],[120.7065,16.068]]]},"properties":{"province":"Pangasinan","municipality":"San Manuel"}}
]}